STARLINK-32037          
1 60283U 24132F   26068.39311660  .00000058  00000+0  14079-4 0  9999
2 60283  53.1605  53.9022 0001143  97.8508 262.2622 15.30186883 91519
TEVEL2-1                
1 63217U 25052H   26068.64782323  .00020683  00000+0  70600-3 0  9994
2 63217  97.3991 324.7682 0004767 104.8919 255.2849 15.30341923 54855
